[{"OBJECT_NAME":"TOMORROW-S2","OBJECT_ID":"2024-149T","EPOCH":"2026-03-09T18:02:42.746496","MEAN_MOTION":15.30674935,"ECCENTRICITY":0.0001648,"INCLINATION":97.3857,"RA_OF_ASC_NODE":150.0385,"ARG_OF_PERICENTER":234.3331,"MEAN_ANOMALY":125.7757,"EPHEMERIS_TYPE":0,"CLASSIFICATION_TYPE":"U","NORAD_CAT_ID":60485,"ELEMENT_SET_NO":999,"REV_AT_EPOCH":8686,"BSTAR":0.00027683033,"MEAN_MOTION_DOT":8.133e-5,"MEAN_MOTION_DDOT":0},{"OBJECT_NAME":"STARLINK-32431","OBJECT_ID":"2024-175P","EPOCH":"2026-03-09T14:59:40.959168","MEAN_MOTION":15.30183964,"ECCENTRICITY":0.0001135,"INCLINATION":53.1608,"RA_OF_ASC_NODE":194.3378,"ARG_OF_PERICENTER":61.6601,"MEAN_ANOMALY":298.4514,"EPHEMERIS_TYPE":0,"CLASSIFICATION_TYPE":"U","NORAD_CAT_ID":61256,"ELEMENT_SET_NO":999,"REV_AT_EPOCH":8144,"BSTAR":7.6409e-5,"MEAN_MOTION_DOT":1.903e-5,"MEAN_MOTION_DDOT":0}]
