TOMORROW-S2             
1 60485U 24149T   26068.75188364  .00008133  00000+0  27683-3 0  9990
2 60485  97.3857 150.0385 0001648 234.3331 125.7757 15.30674935 86869
STARLINK-32431          
1 61256U 24175P   26068.62477962  .00001903  00000+0  76409-4 0  9996
2 61256  53.1608 194.3378 0001135  61.6601 298.4514 15.30183964 81440
